[{"OBJECT_NAME":"STARLINK-31354","OBJECT_ID":"2024-027M","EPOCH":"2026-03-09T22:28:26.680224","MEAN_MOTION":15.30185838,"ECCENTRICITY":0.00010263,"INCLINATION":53.1608,"RA_OF_ASC_NODE":308.6501,"ARG_OF_PERICENTER":103.1527,"MEAN_ANOMALY":256.9589,"EPHEMERIS_TYPE":0,"CLASSIFICATION_TYPE":"U","NORAD_CAT_ID":58942,"ELEMENT_SET_NO":999,"REV_AT_EPOCH":11736,"BSTAR":0.00013102381,"MEAN_MOTION_DOT":3.522e-5,"MEAN_MOTION_DDOT":0},{"OBJECT_NAME":"COSMOS 1328","OBJECT_ID":"1981-117A","EPOCH":"2026-03-09T17:51:53.113536","MEAN_MOTION":15.33902077,"ECCENTRICITY":0.00108717,"INCLINATION":82.4939,"RA_OF_ASC_NODE":350.453,"ARG_OF_PERICENTER":167.9725,"MEAN_ANOMALY":192.1779,"EPHEMERIS_TYPE":0,"CLASSIFICATION_TYPE":"U","NORAD_CAT_ID":12987,"ELEMENT_SET_NO":999,"REV_AT_EPOCH":41406,"BSTAR":0.00040501644,"MEAN_MOTION_DOT":0.00013342,"MEAN_MOTION_DDOT":0}]
